TELKOM 4 (MERAH PUTIH)  
1 43587U 18064A   26064.81853983 -.00000350  00000+0  00000+0 0  9996
2 43587   0.0122 141.9955 0001796 243.3032 180.8979  1.00270024 27847
TELSTAR 18V             
1 43611U 18069A   26064.78794817  .00000000  00000+0  00000+0 0  9996
2 43611   0.0206 171.4994 0002046 178.9200 234.7731  1.00267957 27596
AZERSPACE 2 (IS-38)     
1 43632U 18074A   26064.31642096  .00000000  00000+0  00000+0 0  9995
2 43632   0.0249 144.2303 0001446 216.1159 321.7363  1.00271143 27409
HORIZONS-3E             
1 43633U 18074B   26064.90195612 -.00000037  00000+0  00000+0 0  9999
2 43633   0.0160 332.6823 0000535  13.4082 311.2086  1.00271692 27307
BEIDOU-3 G1             
1 43683U 18085A   26065.32408231 -.00000283  00000+0  00000+0 0  9990
2 43683   2.8155 100.3325 0001489  17.2822 303.1125  1.00268050 27023
GSAT-29                 
1 43698U 18089A   26065.23794550  .00000080  00000+0  00000+0 0  9996
2 43698   0.0534 272.7048 0001718  61.6219 330.3071  1.00272655 26751
ES'HAIL 2               
1 43700U 18090A   26064.51699441  .00000137  00000+0  00000+0 0  9998
2 43700   0.0102 207.4790 0002702 172.6625 355.0003  1.00272028 26633
GEO-KOMPSAT-2A          
1 43823U 18100A   26063.26502859  .00000000  00000+0  00000+0 0  9992
2 43823   0.0084  82.1864 0001750 326.5345 336.9688  1.00267019 26573
GSAT-11                 
1 43824U 18100B   26065.16834163 -.00000082  00000+0  00000+0 0  9991
2 43824   0.0815 270.9937 0005161 145.3671 242.1153  1.00272043 26447
GSAT-7A                 
1 43864U 18105A   26065.22267013  .00000022  00000+0  00000+0 0  9994
2 43864   0.0948 277.9826 0001957  59.9277 328.9185  1.00271714 26412
COSMOS 2533             
1 43867U 18107A   26065.16756163 -.00000044  00000+0  00000+0 0  9996
2 43867   0.0169 119.3697 0000357 355.7587 179.0814  1.00273127 26402
TJS-3                   
1 43874U 18110A   26064.73329492 -.00000227  00000+0  00000+0 0  9994
2 43874   2.2781  81.7709 0016970 345.1463  87.7820  1.00349408 26389
ZHONGXING-2D            
1 43920U 19001A   26065.32208898 -.00000342  00000+0  00000+0 0  9996
2 43920   0.0515 299.0722 0001018   1.7525 109.1842  1.00271175 53043
HELLAS-SAT 4 & SGS-1    
1 44034U 19007A   26064.87621599  .00000146  00000+0  00000+0 0  9996
2 44034   0.0671 126.1395 0002909  22.2320   9.6779  1.00272745 26339
GSAT-31                 
1 44035U 19007B   26065.24350596  .00000120  00000+0  00000+0 0  9997
2 44035   0.0299 257.6855 0004489  49.5822 352.2097  1.00271534 25931
NUSANTARA SATU          
1 44048U 19009A   26063.52197821 -.00000246  00000+0  00000+0 0  9992
2 44048   0.0283 131.5344 0001530 315.9846  48.6457  1.00271077 25726
ZHONGXING-6C            
1 44067U 19012A   26065.32217565 -.00000340  00000+0  00000+0 0  9990
2 44067   0.0483  61.5467 0008811 329.3667  19.5097  1.00269750 25706
